satname,norad_id,inclination_deg,eccentricity,mean_motion_rev_per_day,perigee_km,apogee_km,l1,l2
STARLINK-1008,44714,53.0546,0.0001524,15.06395972,546.1684782039993,548.2793282072962,1 44714U 19074B   25342.74334630  .00004591  00000+0  32692-3 0  9990,2 44714  53.0546 234.8915 0001524  92.3536 267.7627 15.06395972335046
STARLINK-1012,44718,53.0532,0.000132,15.06393439,546.3175178673237,548.1458151952875,1 44718U 19074F   25342.85392413  .00001768  00000+0  13758-3 0  9994,2 44718  53.0532 234.3946 0001320  89.8458 270.2682 15.06393439335059
STARLINK-1017,44723,53.0508,0.0006672,15.17571792,508.58396003790494,517.7797359086417,1 44723U 19074L   25342.83928100  .00013584  00000+0  68209-3 0  9996,2 44723  53.0508 228.3697 0006672  79.7407 280.4339 15.17571792335145
STARLINK-1019,44724,53.0519,0.0004476,15.55837439,396.6856210084443,402.7531580483501,1 44724U 19074M   25342.82525814  .00043690  00000+0  62397-3 0  9994,2 44724  53.0519 224.3708 0004476 123.7752 236.3685 15.55837439335194
STARLINK-1020,44725,53.059,0.0001383,15.06385233,546.2990350712662,548.2145990010586,1 44725U 19074N   25342.78940727 -.00007167  00000+0 -46293-3 0  9992,2 44725  53.0590 254.6875 0001383  97.8651 262.2495 15.06385233334763
STARLINK-1031,44736,53.0474,0.0007805,15.58044665,388.0314602625431,398.60169930058237,1 44736U 19074Z   25342.91670139  .00105186  00000+0  13631-2 0  9993,2 44736  53.0474 210.8611 0007805  79.1842 349.7989 15.58044665  5940
STARLINK-1036,44741,53.0535,0.0001765,15.06390036,546.0197669210256,548.4644257420305,1 44741U 19074AE  25342.75256190  .00000315  00000+0  40043-4 0  9995,2 44741  53.0535 254.8497 0001765  91.7084 268.4107 15.06390036334764
STARLINK-1039,44744,53.0498,0.0002671,15.1511663,518.7818448516555,522.4671632471191,1 44744U 19074AH  25342.22650853  .00028060  00000+0  14906-2 0  9998,2 44744  53.0498 273.1175 0002671  36.7226 323.3949 15.15116630334464
STARLINK-1042,44747,53.0451,0.0002305,15.45126852,429.435860831798,432.5748754635151,1 44747U 19074AL  25342.84334558  .00027272  00000+0  57366-3 0  9992,2 44747  53.0451 169.0686 0002305 183.7231 176.3758 15.45126852336005
STARLINK-1043,44748,53.0557,0.0002477,15.43541137,433.98024865438856,437.35580766533985,1 44748U 19074AM  25342.24321850  .00034670  00000+0  76620-3 0  9992,2 44748  53.0557 272.7364 0002477 100.4453 259.6831 15.43541137334471
STARLINK-1046,44751,53.0545,0.0003301,15.06410919,544.8920464658495,549.4641394902337,1 44751U 19074AQ  25342.80599780  .00002594  00000+0  19295-3 0  9992,2 44751  53.0545 274.6114 0003301  78.9164 281.2196 15.06410919334490
STARLINK-1047,44752,53.0691,9.32e-05,15.3030485,474.26332085655486,475.5407273306464,1 44752U 19074AR  25342.84796977  .00013511  00000+0  46595-3 0  9998,2 44752  53.0691 209.6337 0000932 322.8557  37.2378 15.30304850335420
STARLINK-1048,44753,53.053,3.57e-05,15.06425378,546.8865469485008,547.3810112821284,1 44753U 19074AS  25342.69909771  .00013211  00000+0  90350-3 0  9995,2 44753  53.0530 235.0889 0000357  75.3133 284.7895 15.06425378335031
STARLINK-1053,44758,53.0372,0.000408,15.66490289,366.20329433943607,371.70892231583184,1 44758U 19074AX  25342.83321157  .00083602  00000+0  78419-3 0  9995,2 44758  53.0372 177.1680 0004080 160.3418 199.7755 15.66490289335874
STARLINK-1060,44765,53.0482,0.0008805,15.7462946,339.76547680830936,351.6061287640159,1 44765U 19074BE  25342.91670139  .00161446  00000+0  10630-2 0  9992,2 44765  53.0482 221.6013 0008805 118.3325 162.4573 15.74629460  5994
STARLINK-1063,44768,53.0541,0.0001363,15.06385831,546.3110532955034,548.1989151504031,1 44768U 19074BH  25342.86130330 -.00000211  00000+0  47270-5 0  9999,2 44768  53.0541 274.3646 0001363  84.6259 275.4885 15.06385831334513
STARLINK-1067,44771,53.0548,0.0001515,15.06417353,546.1091917539507,548.2075562522741,1 44771U 19074BL  25342.85025235  .00020249  00000+0  13737-2 0  9999,2 44771  53.0548 274.4135 0001515  91.9772 268.1390 15.06417353334502
STARLINK-1068,44772,53.054,0.0001796,15.13637163,523.87929582776,526.3589454262892,1 44772U 19074BM  25342.91670139  .01270186  00000+0  64573-1 0  9997,2 44772  53.0540 254.0334 0001796  74.0909  18.4463 15.13637163  5777
STARLINK-1112,44925,53.0475,0.0006489,15.62879284,374.9598734917399,383.72973337623716,1 44925U 20001M   25342.91670139  .00210373  00000+0  22319-2 0  9993,2 44925  53.0475 337.7495 0006489  20.0635 163.2072 15.62879284  5717
STARLINK-1114,44927,53.0545,0.0003019,15.06433595,545.017864369911,549.1993276607845,1 44927U 20001P   25342.41528983  .00014928  00000+0  10180-2 0  9990,2 44927  53.0545  36.3676 0003019  99.8044 260.3286 15.06433595326096
STARLINK-1123,44930,53.0563,0.0001571,15.06417187,546.0709187763014,548.2468467426652,1 44930U 20001S   25342.56272391  .00002346  00000+0  17626-3 0  9993,2 44930  53.0563  35.7038 0001571  94.8088 265.3080 15.06417187326118
STARLINK-1144,44933,53.0416,0.0001852,15.72142028,351.52962535353527,354.02275559928694,1 44933U 20001V   25342.91670139  .00215571  00000+0  15700-2 0  9993,2 44933  53.0416 312.5091 0001852 130.2295  82.8268 15.72142028  5947
STARLINK-1094,44941,53.0562,0.0001206,15.06400764,546.3740196356066,548.0444131429995,1 44941U 20001AD  25342.37658277 -.00002603  00000+0 -15591-3 0  9992,2 44941  53.0562  16.5413 0001206  78.9668 281.1456 15.06400764326368
STARLINK-1122,44949,53.0544,0.0001264,15.0642453,546.2610234864414,548.0117325964111,1 44949U 20001AM  25342.79678198  .00004377  00000+0  31235-3 0  9991,2 44949  53.0544  14.6502 0001264  90.1212 269.9921 15.06424530326424
STARLINK-1080,44961,53.0532,0.0001492,15.06411862,546.1419462746144,548.2084594359467,1 44961U 20001AZ  25342.46320711  .00001995  00000+0  15273-3 0  9991,2 44961  53.0532 356.1491 0001492  77.1676 282.9480 15.06411862326663
STARLINK-1090,44968,53.0538,0.0001687,15.06400322,546.0422649195925,548.3788771900654,1 44968U 20001BG  25342.73230103  .00002316  00000+0  17431-3 0  9999,2 44968  53.0538 354.9415 0001687  78.6252 281.4926 15.06400322326703
STARLINK-1107,44972,52.9954,0.0007777,16.05029206,255.35178839338823,265.677547197477,1 44972U 20001BL  25342.98675728  .01456856  13113-2  20949-2 0  9999,2 44972  52.9954 247.4558 0007777 170.1869 189.9315 16.05029206328221
STARLINK-1132,45044,53.0571,0.0001381,15.06400965,546.252210126433,548.1649905812519,1 45044U 20006A   25342.62539156 -.00000574  00000+0 -19631-4 0  9999,2 45044  53.0571 315.4242 0001381  91.4305 268.6842 15.06400965323017
STARLINK-1131,45047,53.0552,0.0001443,15.06408782,546.185318590864,548.183966416891,1 45047U 20006D   25342.40245030  .00007235  00000+0  50398-3 0  9996,2 45047  53.0552 336.9643 0001443  83.5437 276.5716 15.06408782322695
STARLINK-1134,45048,53.0406,0.0004657,15.32094243,466.37605453827746,472.7540042084356,1 45048U 20006E   25342.63564029  .00086121  00000+0  27206-2 0  9996,2 45048  53.0406 307.3696 0004657 325.3047  34.7648 15.32094243323138
STARLINK-1156,45054,53.0542,0.0001448,15.0639774,546.2156930472784,548.2212759955955,1 45054U 20006L   25342.70465649  .00000799  00000+0  72523-4 0  9990,2 45054  53.0542 335.0681 0001448 116.2369 243.8769 15.06397740322749
STARLINK-1159,45057,53.0544,0.0006608,15.56169823,394.2760589800573,403.2323984279119,1 45057U 20006P   25342.77479872  .00047505  00000+0  66896-3 0  9994,2 45057  53.0544 322.6217 0006608  53.5159 306.6460 15.56169823322935
STARLINK-1166,45060,53.0562,0.0001407,15.06449575,546.0852467054756,548.0339970348705,1 45060U 20006S   25342.26597767  .00005033  00000+0  35610-3 0  9996,2 45060  53.0562 337.0366 0001407  60.8244 299.2886 15.06449575322683
STARLINK-1169,45061,53.0545,0.0001375,15.06409565,546.2300113501278,548.1344741418825,1 45061U 20006T   25342.27337792  .00003874  00000+0  27874-3 0  9992,2 45061  53.0545 337.0043 0001375  82.9461 277.1684 15.06409565322683
STARLINK-1171,45062,53.0542,0.0011395,15.38801923,441.87073182180757,457.43126066524655,1 45062U 20006U   25342.68505123  .00113366  00000+0  28726-2 0  9997,2 45062  53.0542 324.9184 0011395  42.9272 317.2619 15.38801923322897
STARLINK-1133,45064,53.057,0.0001086,15.06385451,546.5040511907555,548.0082465826936,1 45064U 20006W   25342.66963346  .00002688  00000+0  19935-3 0  9999,2 45064  53.0570 315.2220 0001086 109.6126 250.4980 15.06385451323022
STARLINK-1167,45071,53.0534,0.0001425,15.06394401,546.241853505192,548.2155827348561,1 45071U 20006AD  25342.62908171  .00000323  00000+0  40592-4 0  9996,2 45071  53.0534 315.4032 0001425  92.8276 267.2876 15.06394401323013
STARLINK-1168,45072,53.0539,0.0001231,15.06402698,546.3507795796304,548.0557983587742,1 45072U 20006AE  25342.36737503  .00004068  00000+0  29182-3 0  9998,2 45072  53.0539 316.5781 0001231  87.4064 272.7066 15.06402698322976
STARLINK-1172,45074,53.056,0.0001608,15.06407776,546.0741335048497,548.3013179366408,1 45074U 20006AG  25342.64382094  .00005389  00000+0  38032-3 0  9993,2 45074  53.0560 315.3406 0001608  89.5784 270.5389 15.06407776323015
STARLINK-1153,45080,53.0533,0.0001568,15.06403234,546.1157531120652,548.2875393115173,1 45080U 20006AN  25342.62170596  .00004035  00000+0  28960-3 0  9996,2 45080  53.0533 315.4340 0001568  88.5627 271.5542 15.06403234323017
STARLINK-1151,45081,53.0541,0.0001402,15.1302698,526.0068914519516,527.9430848534294,1 45081U 20006AP  25342.91670139  .00085364  00000+0  47362-2 0  9997,2 45081  53.0541 313.8590 0001402  81.1621 331.3515 15.13026980  5778
STARLINK-1185,45087,53.0554,0.0002283,15.06405212,545.6145305260843,548.7766373839186,1 45087U 20006AV  25342.84839258  .00002384  00000+0  17891-3 0  9990,2 45087  53.0554 294.4219 0002283  81.5090 278.6158 15.06405212323334
STARLINK-1183,45088,53.0553,0.0001404,15.06401943,546.2332848280703,548.1779210309733,1 45088U 20006AW  25342.60511115 -.00005226  00000+0 -33217-3 0  9994,2 45088  53.0553 295.5144 0001404  86.1364 273.9786 15.06401943323299
